2004 HH20,e,4.145355,32.710461,198.852659,1.78153809,0,0.42061335,24.820903,8/27/2011,2000.0,24.98,0.15
2004 HC33,e,11.281899,212.393457,20.140297,1.76612167,0,0.42981938,39.413531,8/27/2011,2000.0,25.94,0.15
2004 HT38,e,13.106487,40.096201,152.085641,1.731599,0,0.37647126,88.097333,8/27/2011,2000.0,23.42,0.15
2004 HA39,e,36.204526,204.105239,67.3579,2.14934193,0,0.53733591,101.048086,8/27/2011,2000.0,20.79,0.15
2004 HB39,e,5.506582,174.322515,64.972728,1.92788237,0,0.45534018,258.335165,8/27/2011,2000.0,22.69,0.15
2004 HC39,e,14.682782,56.159225,224.108873,1.8160082,0,0.50057425,337.886795,8/27/2011,2000.0,21.47,0.15
2004 HW53,e,39.100212,32.809146,95.762385,2.17733819,0,0.58144259,120.956017,8/27/2011,2000.0,19.6,0.15
2004 HX53,e,3.554039,64.546327,241.666226,1.19262095,0,0.3338129,173.673755,8/27/2011,2000.0,23.27,0.15
2004 HR56,e,6.017731,40.920658,88.042596,1.56142648,0,0.43842577,313.973814,8/27/2011,2000.0,23.29,0.15
2004 HS56,e,30.029638,41.732895,196.214612,1.43997954,0,0.28491932,76.592659,8/27/2011,2000.0,22.17,0.15
2004 HT59,e,11.13219,214.687931,112.156915,0.98010915,0,0.22342993,116.100481,8/27/2011,2000.0,27.33,0.15
2004 JA,e,29.608513,56.955735,54.280299,1.35575849,0,0.62822362,263.573381,8/27/2011,2000.0,17.88,0.15
2004 JC,e,8.933086,107.911772,185.693258,2.45420145,0,0.66703783,309.825064,8/27/2011,2000.0,20.46,0.15
2004 JR,e,45.412238,209.598519,139.51754,1.89091349,0,0.6465254,260.135906,8/27/2011,2000.0,18.69,0.15
2004 JN1,e,1.497956,144.035407,1.984623,1.0853966,0,0.17560587,224.926214,8/27/2011,2000.0,23.46,0.15
2004 JO1,e,21.568303,69.790429,286.215697,1.02228824,0,0.47459249,303.811752,8/27/2011,2000.0,20.67,0.15
2004 JP1,e,20.929459,56.64065,253.915921,1.13417237,0,0.21895759,317.368243,8/27/2011,2000.0,22.65,0.15
2004 JQ1,e,32.828877,77.117214,272.623417,1.19377367,0,0.45014936,140.688943,8/27/2011,2000.0,19.97,0.15
2004 JN2,e,19.763237,228.373629,179.877887,1.06769452,0,0.60848446,37.993369,8/27/2011,2000.0,20.45,0.15
2004 JO2,e,18.712712,222.642828,127.358171,2.29000688,0,0.57105074,349.644106,8/27/2011,2000.0,17.31,0.15
2004 JG6,e,18.945978,37.053708,352.973555,0.63518965,0,0.53124485,352.457865,8/27/2011,2000.0,18.5,0.15
2004 JB12,e,8.435572,152.068469,152.24016,2.18812817,0,0.51701187,64.442833,8/27/2011,2000.0,18.75,0.15
2004 JO12,e,21.680841,231.793777,16.695609,1.3891609,0,0.25472579,153.449411,8/27/2011,2000.0,23.65,0.15
2004 JP12,e,8.161915,216.922263,262.742242,1.86124978,0,0.77086278,333.246907,8/27/2011,2000.0,23.51,0.15
2004 JO20,e,10.256468,234.488105,68.113839,1.4692507,0,0.43263081,3.798025,8/27/2011,2000.0,26.15,0.15
2004 JU20,e,5.616898,52.515113,138.736935,1.49687899,0,0.27654471,15.842473,8/27/2011,2000.0,25.31,0.15
2004 JV20,e,25.153791,53.409265,252.512998,1.31741832,0,0.34025283,255.465489,8/27/2011,2000.0,23.72,0.15
2004 JW20,e,14.729564,235.226227,207.453463,0.95282936,0,0.56147938,38.008847,8/27/2011,2000.0,20.59,0.15
2004 JX20,e,10.520708,101.892249,349.066863,0.90181516,0,0.26601196,300.522115,8/27/2011,2000.0,19.33,0.15
2004 KA,e,7.933059,211.951698,79.425818,2.00439041,0,0.48614572,183.027588,8/27/2011,2000.0,20.62,0.15
2004 KB,e,20.6593,230.98518,243.234686,1.18692659,0,0.28841367,311.24507,8/27/2011,2000.0,21.07,0.15
2004 KT,e,43.655792,268.004934,238.452246,1.85450456,0,0.66334817,350.011854,8/27/2011,2000.0,17.95,0.15
2004 KZ,e,12.393915,58.425321,101.009466,1.28831271,0,0.37415412,30.109902,8/27/2011,2000.0,25.67,0.15
2004 KE1,e,2.884409,42.803478,283.621366,1.29895974,0,0.18074193,257.585864,8/27/2011,2000.0,21.66,0.15
2004 KG1,e,1.910559,243.264338,213.40965,0.83029277,0,0.40717486,325.976289,8/27/2011,2000.0,24.04,0.15
2004 KZ14,e,7.888214,200.308175,310.564664,1.53701222,0,0.31270842,347.994871,8/27/2011,2000.0,20.83,0.15
2004 KH15,e,35.069303,78.121551,350.047718,0.96117421,0,0.17017275,78.440068,8/27/2011,2000.0,19.9,0.15
2004 KE17,e,26.923874,68.863829,175.308301,2.77300367,0,0.61965932,204.08795,8/27/2011,2000.0,21.22,0.15
2004 KF17,e,13.237197,70.003612,212.437075,1.85186558,0,0.47682756,303.968533,8/27/2011,2000.0,25.47,0.15
2004 KG17,e,0.489043,102.089888,149.153704,1.51050873,0,0.32147429,323.314124,8/27/2011,2000.0,27,0.15
2004 KH17,e,22.109307,79.185418,340.684684,0.71192966,0,0.49871747,222.662296,8/27/2011,2000.0,21.91,0.15
2004 KK17,e,41.54946,103.702079,31.513762,1.46703148,0,0.57535986,70.105594,8/27/2011,2000.0,18.4,0.15
2004 LB,e,37.288945,254.043637,145.021958,1.05060066,0,0.053212,111.847523,8/27/2011,2000.0,21.79,0.15
2004 LC,e,5.246286,245.12054,330.438724,2.10023048,0,0.55344327,145.702187,8/27/2011,2000.0,24.16,0.15
2004 LE,e,40.485265,211.530708,185.180113,2.64580439,0,0.83753706,219.599072,8/27/2011,2000.0,16.54,0.15
2004 LG,e,70.948898,256.8834,164.65461,2.06608802,0,0.89724024,130.736058,8/27/2011,2000.0,17.94,0.15
2004 LJ,e,18.284298,246.777463,256.018643,1.0871472,0,0.46152481,197.207514,8/27/2011,2000.0,20.13,0.15
2004 LK,e,7.814185,76.058249,229.896157,2.09006072,0,0.51269189,124.33395,8/27/2011,2000.0,22.68,0.15
2004 LV,e,2.304146,217.086623,132.96668,1.66124747,0,0.62159189,107.543947,8/27/2011,2000.0,23.8,0.15
2004 LB1,e,22.969072,82.941687,125.787916,1.28061594,0,0.24609537,23.070246,8/27/2011,2000.0,23.2,0.15
2004 LB2,e,6.872548,261.449837,106.459122,1.3321658,0,0.57054554,209.997183,8/27/2011,2000.0,22.13,0.15
2004 LC2,e,10.96817,84.55432,290.42135,1.86511652,0,0.73465676,276.201748,8/27/2011,2000.0,18.61,0.15
2004 LO2,e,25.440836,82.643548,309.426013,0.91541057,0,0.35128065,349.168888,8/27/2011,2000.0,24.77,0.15
2004 LU3,e,9.851376,113.970036,224.166123,2.17399426,0,0.53157116,68.611383,8/27/2011,2000.0,18.3,0.15
2004 LV3,e,35.339379,273.513107,121.309431,1.23134316,0,0.27584366,14.913017,8/27/2011,2000.0,18.77,0.15
2004 LX5,e,13.557578,83.286175,172.83155,1.30298147,0,0.21126451,306.975016,8/27/2011,2000.0,25.59,0.15
2004 LY5,e,15.932232,87.147778,295.373839,1.80870546,0,0.77543432,324.613184,8/27/2011,2000.0,21.27,0.15
2004 LA6,e,18.317043,244.614387,74.739246,1.69212384,0,0.35550713,69.767279,8/27/2011,2000.0,21.77,0.15
2004 LA10,e,1.062668,139.655147,140.888042,2.4911691,0,0.58057524,295.427634,8/27/2011,2000.0,25.04,0.15
2004 MC,e,2.434594,91.493344,203.281147,2.443376,0,0.58709667,311.508598,8/27/2011,2000.0,23.15,0.15
2004 MD,e,9.763626,85.55699,124.131661,1.91644918,0,0.53797769,271.604415,8/27/2011,2000.0,20.17,0.15
2004 MN1,e,31.379247,84.479651,248.126902,1.471501,0,0.42792488,342.067638,8/27/2011,2000.0,24.51,0.15
2004 MO1,e,54.964324,83.752934,209.45307,1.88074994,0,0.44729275,273.39611,8/27/2011,2000.0,23.3,0.15
2004 MP1,e,8.644662,266.668633,326.743019,1.77816812,0,0.43809067,23.34907,8/27/2011,2000.0,24.68,0.15
2004 MQ1,e,10.975814,57.605233,331.054222,2.40397199,0,0.70738625,310.12578,8/27/2011,2000.0,18,0.15
2004 MR1,e,1.787851,88.126073,220.892768,1.52276136,0,0.37302311,278.550124,8/27/2011,2000.0,25.21,0.15
2004 MS1,e,6.964055,263.333211,324.248657,2.27469308,0,0.58980446,43.74676,8/27/2011,2000.0,22.24,0.15
2004 MV2,e,6.685744,103.357158,106.056076,1.83740735,0,0.48338463,337.359647,8/27/2011,2000.0,23.44,0.15
2004 MW2,e,35.110488,96.163465,50.154806,1.14522875,0,0.63805478,359.846254,8/27/2011,2000.0,19.2,0.15
2004 MX2,e,18.316847,118.101139,241.86914,2.77601059,0,0.71253973,187.328971,8/27/2011,2000.0,19.18,0.15
2004 MO3,e,2.553499,252.699071,297.797583,1.23292488,0,0.33643742,133.245269,8/27/2011,2000.0,22.18,0.15
2004 MO4,e,2.219187,106.423245,188.417346,1.69886182,0,0.38821648,76.744709,8/27/2011,2000.0,25.13,0.15
2004 MB6,e,11.124986,134.219616,229.767429,2.57220446,0,0.70625519,241.542123,8/27/2011,2000.0,19.36,0.15
2004 MD6,e,29.327777,263.894373,231.401202,0.95071288,0,0.56280628,344.356877,8/27/2011,2000.0,20.4,0.15
2004 ME6,e,9.291635,111.727885,209.72509,2.43618591,0,0.58775168,306.072794,8/27/2011,2000.0,22.74,0.15
2004 MQ6,e,35.395397,105.935822,256.399098,1.81856056,0,0.64574136,309.669794,8/27/2011,2000.0,19.79,0.15
2004 MP7,e,17.34226,96.548182,110.737603,2.73824829,0,0.72019,217.104302,8/27/2011,2000.0,21.67,0.15
2004 NF3,e,0.786034,270.055581,22.676638,2.06244266,0,0.4796899,144.536513,8/27/2011,2000.0,24.42,0.15
2004 NU7,e,0.835857,135.911354,135.2383,2.23214595,0,0.54025226,54.470309,8/27/2011,2000.0,23.94,0.15
2004 NK8,e,15.930874,290.003153,302.604839,1.32635538,0,0.28094185,270.463905,8/27/2011,2000.0,23.33,0.15
2004 OB,e,3.441542,174.614585,223.180239,1.68078066,0,0.43040693,44.506196,8/27/2011,2000.0,18.83,0.15
2004 OD4,e,4.361863,294.651524,336.020955,2.03707196,0,0.51541969,166.609499,8/27/2011,2000.0,26.93,0.15
2004 OW10,e,1.503089,102.523818,130.99008,1.22355635,0,0.24911369,130.666555,8/27/2011,2000.0,24.54,0.15
2004 PJ,e,5.394013,139.500546,145.391983,2.25442631,0,0.53178374,38.673676,8/27/2011,2000.0,22.72,0.15
2004 PJ2,e,2.582628,317.214219,281.616145,1.41813468,0,0.34204178,102.645423,8/27/2011,2000.0,21.29,0.15
2004 PZ19,e,6.892262,138.769516,223.31122,2.04232284,0,0.55076509,137.207161,8/27/2011,2000.0,24.52,0.15
2004 PG20,e,5.198869,320.303555,339.865642,1.44059854,0,0.26650701,37.547439,8/27/2011,2000.0,24.56,0.15
2004 PS42,e,23.164696,304.36384,323.309586,1.24104989,0,0.1667803,66.073333,8/27/2011,2000.0,21.03,0.15
2004 PU42,e,0.989096,146.915971,232.502764,1.5737973,0,0.4435712,179.874803,8/27/2011,2000.0,26.78,0.15
2004 PR92,e,12.998916,321.557039,100.272874,1.13319453,0,0.34031287,238.41378,8/27/2011,2000.0,25,0.15
2004 PB97,e,10.967181,140.737142,160.526218,1.23488263,0,0.16270696,60.572696,8/27/2011,2000.0,24.93,0.15
2004 QB,e,10.969673,131.95619,110.87217,2.11294945,0,0.65193454,121.746052,8/27/2011,2000.0,19.77,0.15
2004 QF1,e,17.8285,332.977705,174.020891,1.05073186,0,0.29022497,54.163777,8/27/2011,2000.0,18.16,0.15
2004 QZ1,e,5.496469,257.731504,186.557042,1.86499271,0,0.70989186,243.267865,8/27/2011,2000.0,20.7,0.15
2004 QA2,e,8.357631,132.853081,159.44263,2.12235756,0,0.51531047,106.000429,8/27/2011,2000.0,22.31,0.15
2004 QX2,e,19.006063,320.181245,218.808419,1.28655083,0,0.90276465,324.753022,8/27/2011,2000.0,21.51,0.15
